start=new Date('2022-06-27T00:00:00.000Z').valueOf();
sats=[{"APOAPSIS":"548.404","TIME_SYSTEM":"UTC","ECCENTRICITY":"0.00016720","MEAN_MOTION":"15.06389367","OBJECT_NAME":"STARLINK-2600","EPOCH":"2022-06-26T15:31:52.021632","MEAN_MOTION_DOT":"0.00001640","GP_ID":"206925474","MEAN_ELEMENT_THEORY":"SGP4","CLASSIFICATION_TYPE":"U","TLE_LINE1":"1 48387U 21038AL  22177.64712988  .00001640  00000-0  12901-3 0  9995","PERIAPSIS":"546.088","SITE":"AFETR","ARG_OF_PERICENTER":"58.1759","DECAY_DATE":null,"NORAD_CAT_ID":"48387","LAUNCH_DATE":"2021-05-04","REF_FRAME":"TEME","FILE":"3503441","TLE_LINE2":"2 48387  53.0557 296.1489 0001672  58.1759 301.9393 15.06389367 63451","COUNTRY_CODE":"US","ELEMENT_SET_NO":"999","MEAN_MOTION_DDOT":"0.0000000000000","OBJECT_ID":"2021-038AL","EPHEMERIS_TYPE":"0","CENTER_NAME":"EARTH","INCLINATION":"53.0557","BSTAR":"0.00012901000000","RA_OF_ASC_NODE":"296.1489","SEMIMAJOR_AXIS":"6925.381","REV_AT_EPOCH":"6345","MEAN_ANOMALY":"301.9393","PERIOD":"95.593","OBJECT_TYPE":"PAYLOAD","RCS_SIZE":"MEDIUM"},{"MEAN_MOTION_DOT":"0.00001893","GP_ID":"206925226","NORAD_CAT_ID":"48388","DECAY_DATE":null,"TLE_LINE1":"1 48388U 21038AM  22177.64343390  .00001893  00000-0  14594-3 0  9993","SITE":"AFETR","PERIAPSIS":"546.321","ARG_OF_PERICENTER":"68.9955","MEAN_ELEMENT_THEORY":"SGP4","CLASSIFICATION_TYPE":"U","APOAPSIS":"548.118","TIME_SYSTEM":"UTC","ECCENTRICITY":"0.00012970","MEAN_MOTION":"15.06398042","OBJECT_NAME":"STARLINK-2594","EPOCH":"2022-06-26T15:26:32.688960","RA_OF_ASC_NODE":"296.1984","SEMIMAJOR_AXIS":"6925.355","REV_AT_EPOCH":"6345","BSTAR":"0.00014594000000","INCLINATION":"53.0549","OBJECT_TYPE":"PAYLOAD","RCS_SIZE":"LARGE","PERIOD":"95.592","MEAN_ANOMALY":"291.1172","FILE":"3503441","TLE_LINE2":"2 48388  53.0549 296.1984 0001297  68.9955 291.1172 15.06398042 63458","COUNTRY_CODE":"US","ELEMENT_SET_NO":"999","REF_FRAME":"TEME","LAUNCH_DATE":"2021-05-04","CENTER_NAME":"EARTH","EPHEMERIS_TYPE":"0","OBJECT_ID":"2021-038AM","MEAN_MOTION_DDOT":"0.0000000000000"},{"INCLINATION":"53.0553","BSTAR":"0.00033349000000","SEMIMAJOR_AXIS":"6925.347","REV_AT_EPOCH":"6352","RA_OF_ASC_NODE":"290.9506","MEAN_ANOMALY":"290.0446","PERIOD":"95.592","RCS_SIZE":"LARGE","OBJECT_TYPE":"PAYLOAD","LAUNCH_DATE":"2021-05-04","REF_FRAME":"TEME","ELEMENT_SET_NO":"999","TLE_LINE2":"2 48389  53.0553 290.9506 0001573  70.0713 290.0446 15.06400531 63526","COUNTRY_CODE":"US","FILE":"3503441","MEAN_MOTION_DDOT":"0.0000000000000","OBJECT_ID":"2021-038AN","CENTER_NAME":"EARTH","EPHEMERIS_TYPE":"0","GP_ID":"206926476","MEAN_MOTION_DOT":"0.00004689","CLASSIFICATION_TYPE":"U","MEAN_ELEMENT_THEORY":"SGP4","SITE":"AFETR","ARG_OF_PERICENTER":"70.0713","PERIAPSIS":"546.123","TLE_LINE1":"1 48389U 21038AN  22177.69640194  .00004689  00000-0  33349-3 0  9996","NORAD_CAT_ID":"48389","DECAY_DATE":null,"ECCENTRICITY":"0.00015730","APOAPSIS":"548.301","TIME_SYSTEM":"UTC","OBJECT_NAME":"STARLINK-1904","EPOCH":"2022-06-26T16:42:49.127616","MEAN_MOTION":"15.06400531"},{"TIME_SYSTEM":"UTC","APOAPSIS":"548.298","ECCENTRICITY":"0.00015530","MEAN_MOTION":"15.06397058","OBJECT_NAME":"STARLINK-2586","EPOCH":"2022-06-26T16:38:52.284480","MEAN_MOTION_DOT":"0.00002121","GP_ID":"206926704","MEAN_ELEMENT_THEORY":"SGP4","CLASSIFICATION_TYPE":"U","TLE_LINE1":"1 48390U 21038AP  22177.69366070  .00002121  00000-0  16127-3 0  9990","SITE":"AFETR","ARG_OF_PERICENTER":"64.1583","PERIAPSIS":"546.147","NORAD_CAT_ID":"48390","DECAY_DATE":null,"LAUNCH_DATE":"2021-05-04","REF_FRAME":"TEME","COUNTRY_CODE":"US","TLE_LINE2":"2 48390  53.0550 290.9714 0001553  64.1583 295.9566 15.06397058 64744","FILE":"3503441","ELEMENT_SET_NO":"999","MEAN_MOTION_DDOT":"0.0000000000000","OBJECT_ID":"2021-038AP","CENTER_NAME":"EARTH","EPHEMERIS_TYPE":"0","INCLINATION":"53.0550","BSTAR":"0.00016127000000","RA_OF_ASC_NODE":"290.9714","SEMIMAJOR_AXIS":"6925.358","REV_AT_EPOCH":"6474","MEAN_ANOMALY":"295.9566","PERIOD":"95.592","OBJECT_TYPE":"PAYLOAD","RCS_SIZE":"LARGE"},{"RA_OF_ASC_NODE":"291.2948","REV_AT_EPOCH":"6473","SEMIMAJOR_AXIS":"6925.341","BSTAR":"0.00011140000000","INCLINATION":"53.0553","OBJECT_TYPE":"PAYLOAD","RCS_SIZE":"LARGE","PERIOD":"95.592","MEAN_ANOMALY":"313.6024","COUNTRY_CODE":"US","TLE_LINE2":"2 48391  53.0553 291.2948 0001955  46.5127 313.6024 15.06402602 64733","FILE":"3503441","ELEMENT_SET_NO":"999","REF_FRAME":"TEME","LAUNCH_DATE":"2021-05-04","CENTER_NAME":"EARTH","EPHEMERIS_TYPE":"0","OBJECT_ID":"2021-038AQ","MEAN_MOTION_DDOT":"0.0000000000000","MEAN_MOTION_DOT":"0.00001378","GP_ID":"206924976","DECAY_DATE":null,"NORAD_CAT_ID":"48391","TLE_LINE1":"1 48391U 21038AQ  22177.62362279  .00001378  00000-0  11140-3 0  9994","SITE":"AFETR","PERIAPSIS":"545.852","ARG_OF_PERICENTER":"46.5127","MEAN_ELEMENT_THEORY":"SGP4","CLASSIFICATION_TYPE":"U","TIME_SYSTEM":"UTC","APOAPSIS":"548.559","ECCENTRICITY":"0.00019550","MEAN_MOTION":"15.06402602","OBJECT_NAME":"STARLINK-2607","EPOCH":"2022-06-26T14:58:01.009056"},{"PERIOD":"95.592","MEAN_ANOMALY":"310.1534","OBJECT_TYPE":"PAYLOAD","RCS_SIZE":"LARGE","BSTAR":"0.00018090000000","INCLINATION":"53.0549","RA_OF_ASC_NODE":"291.6084","REV_AT_EPOCH":"6472","SEMIMAJOR_AXIS":"6925.365","MEAN_MOTION_DDOT":"0.0000000000000","EPHEMERIS_TYPE":"0","CENTER_NAME":"EARTH","OBJECT_ID":"2021-038AR","REF_FRAME":"TEME","LAUNCH_DATE":"2021-05-04","FILE":"3503181","TLE_LINE2":"2 48392  53.0549 291.6084 0001628  49.9598 310.1534 15.06394594 64727","COUNTRY_CODE":"US","ELEMENT_SET_NO":"999","CLASSIFICATION_TYPE":"U","MEAN_ELEMENT_THEORY":"SGP4","NORAD_CAT_ID":"48392","DECAY_DATE":null,"TLE_LINE1":"1 48392U 21038AR  22177.55359596  .00002414  00000-0  18090-3 0  9998","SITE":"AFETR","PERIAPSIS":"546.103","ARG_OF_PERICENTER":"49.9598","MEAN_MOTION_DOT":"0.00002414","GP_ID":"206894895","MEAN_MOTION":"15.06394594","EPOCH":"2022-06-26T13:17:10.690944","OBJECT_NAME":"STARLINK-2605","APOAPSIS":"548.358","TIME_SYSTEM":"UTC","ECCENTRICITY":"0.00016280"},{"PERIAPSIS":"546.222","SITE":"AFETR","ARG_OF_PERICENTER":"56.3036","TLE_LINE1":"1 48393U 21038AS  22177.68259659  .00000712  00000-0  66712-4 0  9996","NORAD_CAT_ID":"48393","DECAY_DATE":null,"CLASSIFICATION_TYPE":"U","MEAN_ELEMENT_THEORY":"SGP4","GP_ID":"206925977","MEAN_MOTION_DOT":"0.00000712","OBJECT_NAME":"STARLINK-2602","EPOCH":"2022-06-26T16:22:56.345376","MEAN_MOTION":"15.06397607","ECCENTRICITY":"0.00014420","TIME_SYSTEM":"UTC","APOAPSIS":"548.220","RCS_SIZE":"LARGE","OBJECT_TYPE":"PAYLOAD","MEAN_ANOMALY":"303.8090","PERIOD":"95.592","REV_AT_EPOCH":"6474","SEMIMAJOR_AXIS":"6925.356","RA_OF_ASC_NODE":"291.0263","INCLINATION":"53.0541","BSTAR":"0.00006671200000","OBJECT_ID":"2021-038AS","EPHEMERIS_TYPE":"0","CENTER_NAME":"EARTH","MEAN_MOTION_DDOT":"0.0000000000000","ELEMENT_SET_NO":"999","TLE_LINE2":"2 48393  53.0541 291.0263 0001442  56.3036 303.8090 15.06397607 64742","COUNTRY_CODE":"US","FILE":"3503441","LAUNCH_DATE":"2021-05-04","REF_FRAME":"TEME"},{"NORAD_CAT_ID":"48394","DECAY_DATE":null,"SITE":"AFETR","PERIAPSIS":"546.018","ARG_OF_PERICENTER":"62.5069","TLE_LINE1":"1 48394U 21038AT  22177.67891115  .00001705  00000-0  13336-3 0  9991","CLASSIFICATION_TYPE":"U","MEAN_ELEMENT_THEORY":"SGP4","GP_ID":"206926205","MEAN_MOTION_DOT":"0.00001705","EPOCH":"2022-06-26T16:17:37.923360","OBJECT_NAME":"STARLINK-2573","MEAN_MOTION":"15.06401736","ECCENTRICITY":"0.00017190","APOAPSIS":"548.399","TIME_SYSTEM":"UTC","RCS_SIZE":"LARGE","OBJECT_TYPE":"PAYLOAD","PERIOD":"95.592","MEAN_ANOMALY":"297.6095","SEMIMAJOR_AXIS":"6925.343","REV_AT_EPOCH":"6474","RA_OF_ASC_NODE":"291.0427","BSTAR":"0.00013336000000","INCLINATION":"53.0569","CENTER_NAME":"EARTH","EPHEMERIS_TYPE":"0","OBJECT_ID":"2021-038AT","MEAN_MOTION_DDOT":"0.0000000000000","ELEMENT_SET_NO":"999","FILE":"3503441","TLE_LINE2":"2 48394  53.0569 291.0427 0001719  62.5069 297.6095 15.06401736 64741","COUNTRY_CODE":"US","REF_FRAME":"TEME","LAUNCH_DATE":"2021-05-04"},{"LAUNCH_DATE":"2021-05-04","REF_FRAME":"TEME","TLE_LINE2":"2 48395  53.0570 292.0586 0001379  84.3937 275.7209 15.06404816 64723","FILE":"3503181","COUNTRY_CODE":"US","ELEMENT_SET_NO":"999","MEAN_MOTION_DDOT":"0.0000000000000","OBJECT_ID":"2021-038AU","EPHEMERIS_TYPE":"0","CENTER_NAME":"EARTH","INCLINATION":"53.0570","BSTAR":"0.00014749000000","RA_OF_ASC_NODE":"292.0586","REV_AT_EPOCH":"6472","SEMIMAJOR_AXIS":"6925.334","MEAN_ANOMALY":"275.7209","PERIOD":"95.592","OBJECT_TYPE":"PAYLOAD","RCS_SIZE":"LARGE","APOAPSIS":"548.154","TIME_SYSTEM":"UTC","ECCENTRICITY":"0.00013790","MEAN_MOTION":"15.06404816","OBJECT_NAME":"STARLINK-2574","EPOCH":"2022-06-26T14:10:21.207072","MEAN_MOTION_DOT":"0.00001916","GP_ID":"206894643","MEAN_ELEMENT_THEORY":"SGP4","CLASSIFICATION_TYPE":"U","TLE_LINE1":"1 48395U 21038AU  22177.59052323  .00001916  00000-0  14749-3 0  9996","SITE":"AFETR","PERIAPSIS":"546.244","ARG_OF_PERICENTER":"84.3937","DECAY_DATE":null,"NORAD_CAT_ID":"48395"},{"RCS_SIZE":"LARGE","OBJECT_TYPE":"PAYLOAD","MEAN_ANOMALY":"295.3104","PERIOD":"95.592","SEMIMAJOR_AXIS":"6925.346","REV_AT_EPOCH":"6475","RA_OF_ASC_NODE":"290.7640","INCLINATION":"53.0562","BSTAR":"0.00003214500000","OBJECT_ID":"2021-038AV","EPHEMERIS_TYPE":"0","CENTER_NAME":"EARTH","MEAN_MOTION_DDOT":"0.0000000000000","ELEMENT_SET_NO":"999","TLE_LINE2":"2 48396  53.0562 290.7640 0001433  64.8034 295.3104 15.06400826 64755","FILE":"3503441","COUNTRY_CODE":"US","LAUNCH_DATE":"2021-05-04","REF_FRAME":"TEME","PERIAPSIS":"546.219","SITE":"AFETR","ARG_OF_PERICENTER":"64.8034","TLE_LINE1":"1 48396U 21038AV  22177.74157281  .00000197  00000-0  32145-4 0  9994","DECAY_DATE":null,"NORAD_CAT_ID":"48396","CLASSIFICATION_TYPE":"U","MEAN_ELEMENT_THEORY":"SGP4","GP_ID":"206925227","MEAN_MOTION_DOT":"0.00000197","EPOCH":"2022-06-26T17:47:51.890784","OBJECT_NAME":"STARLINK-2575","MEAN_MOTION":"15.06400826","ECCENTRICITY":"0.00014330","TIME_SYSTEM":"UTC","APOAPSIS":"548.203"}];
